UNKNOWN                 
1 85238U          26088.04956509  .00000024  00000+0  55347-4 0  9991
2 85238  99.0699  19.2338 0062365 273.4062 102.1890 13.88364155625594
UNKNOWN                 
1 85246U          26089.44449082  .00002793  00000+0  10010-2 0  9999
2 85246  97.9915  87.8801 0221825 346.6444  12.8922 14.21883145638378
UNKNOWN                 
1 85373U          26089.37522315  .00002966  00000+0  20110-2 0  9997
2 85373 100.4276 145.3913 0050587 315.4133 104.9910 14.00538589627191
UNKNOWN                 
1 85423U          26080.09226852 -.00000119  00000+0  00000+0 0  9992
2 85423   0.2500  63.9100 0237500 184.1600 179.3500  1.04170165    18
UNKNOWN                 
1 85431U          26090.14858122  .00001562  00000+0  35983-3 0  9993
2 85431  29.0618 111.3210 0654747  29.9676 333.6769 13.68330547  2144
UNKNOWN                 
1 85448U          26072.61808446 -.00000384  00000+0  00000+0 0  9997
2 85448  41.4606 155.5047 0007289 313.6966 141.3444 15.68404032    03
UNKNOWN                 
1 87014U          26087.87943766  .00002601  00000+0  39726-2 0  9990
2 87014 100.4809  63.0557 0052924 346.6701  42.2940 13.52443319605264
UNKNOWN                 
1 87029U          26086.81119665  .00001124  00000+0  70759-3 0  9993
2 87029  98.7455 123.3128 0080255 315.8016  43.6758 14.04747797607758
UNKNOWN                 
1 87042U          26087.83414604  .00000966  00000+0  59516-3 0  9993
2 87042  98.6991 132.1755 0044488 154.8644 205.4704 14.07306101568889
UNKNOWN                 
1 87051U          26089.48070963  .00003618  00000+0  12748-2 0  9994
2 87051  65.7322 357.4137 0708448  91.8889 276.3377 13.46357685603082
UNKNOWN                 
1 87054U          26088.98992438  .00002170  00000+0  12237-2 0  9996
2 87054 100.0873 346.5863 0014052  51.7294 308.5135 14.11554712631455
UNKNOWN                 
1 87071U          26088.92028124  .00002926  00000+0  10815-2 0  9990
2 87071  61.2216 312.9934 0471098 291.5906  63.5558 13.86780458617348
