CCSDS_OMM_VERS = 2.0
CREATION_DATE  = 
ORIGINATOR     = 

OBJECT_NAME    = UNKNOWN
OBJECT_ID      = 
CENTER_NAME    = EARTH
REF_FRAME      = TEME
TIME_SYSTEM    = UTC
MEAN_ELEMENT_THEORY = SGP/SGP4

EPOCH          = 2026-03-29T01:11:22.423776
MEAN_MOTION    = 13.88364155
ECCENTRICITY   = .0062365
INCLINATION    = 99.0699
RA_OF_ASC_NODE = 19.2338
ARG_OF_PERICENTER = 273.4062
MEAN_ANOMALY   = 102.1890

EPHEMERIS_TYPE = 0
CLASSIFICATION_TYPE = U
NORAD_CAT_ID   = 85238
ELEMENT_SET_NO = 999
REV_AT_EPOCH   = 62559
BSTAR          = .55347E-4
MEAN_MOTION_DOT = .24E-6
MEAN_MOTION_DDOT = 0

CCSDS_OMM_VERS = 2.0
CREATION_DATE  = 
ORIGINATOR     = 

OBJECT_NAME    = UNKNOWN
OBJECT_ID      = 
CENTER_NAME    = EARTH
REF_FRAME      = TEME
TIME_SYSTEM    = UTC
MEAN_ELEMENT_THEORY = SGP/SGP4

EPOCH          = 2026-03-30T10:40:04.006848
MEAN_MOTION    = 14.21883145
ECCENTRICITY   = .0221825
INCLINATION    = 97.9915
RA_OF_ASC_NODE = 87.8801
ARG_OF_PERICENTER = 346.6444
MEAN_ANOMALY   = 12.8922

EPHEMERIS_TYPE = 0
CLASSIFICATION_TYPE = U
NORAD_CAT_ID   = 85246
ELEMENT_SET_NO = 999
REV_AT_EPOCH   = 63837
BSTAR          = .1001E-2
MEAN_MOTION_DOT = .2793E-4
MEAN_MOTION_DDOT = 0

CCSDS_OMM_VERS = 2.0
CREATION_DATE  = 
ORIGINATOR     = 

OBJECT_NAME    = UNKNOWN
OBJECT_ID      = 
CENTER_NAME    = EARTH
REF_FRAME      = TEME
TIME_SYSTEM    = UTC
MEAN_ELEMENT_THEORY = SGP/SGP4

EPOCH          = 2026-03-30T09:00:19.280160
MEAN_MOTION    = 14.00538589
ECCENTRICITY   = .0050587
INCLINATION    = 100.4276
RA_OF_ASC_NODE = 145.3913
ARG_OF_PERICENTER = 315.4133
MEAN_ANOMALY   = 104.9910

EPHEMERIS_TYPE = 0
CLASSIFICATION_TYPE = U
NORAD_CAT_ID   = 85373
ELEMENT_SET_NO = 999
REV_AT_EPOCH   = 62719
BSTAR          = .2011E-2
MEAN_MOTION_DOT = .2966E-4
MEAN_MOTION_DDOT = 0

CCSDS_OMM_VERS = 2.0
CREATION_DATE  = 
ORIGINATOR     = 

OBJECT_NAME    = UNKNOWN
OBJECT_ID      = 
CENTER_NAME    = EARTH
REF_FRAME      = TEME
TIME_SYSTEM    = UTC
MEAN_ELEMENT_THEORY = SGP/SGP4

EPOCH          = 2026-03-21T02:12:52.000128
MEAN_MOTION    = 1.04170165
ECCENTRICITY   = .02375
INCLINATION    = 0.2500
RA_OF_ASC_NODE = 63.9100
ARG_OF_PERICENTER = 184.1600
MEAN_ANOMALY   = 179.3500

EPHEMERIS_TYPE = 0
CLASSIFICATION_TYPE = U
NORAD_CAT_ID   = 85423
ELEMENT_SET_NO = 999
REV_AT_EPOCH   = 1
BSTAR          = 0
MEAN_MOTION_DOT = -.119E-5
MEAN_MOTION_DDOT = 0

CCSDS_OMM_VERS = 2.0
CREATION_DATE  = 
ORIGINATOR     = 

OBJECT_NAME    = UNKNOWN
OBJECT_ID      = 
CENTER_NAME    = EARTH
REF_FRAME      = TEME
TIME_SYSTEM    = UTC
MEAN_ELEMENT_THEORY = SGP/SGP4

EPOCH          = 2026-03-31T03:33:57.417408
MEAN_MOTION    = 13.68330547
ECCENTRICITY   = .0654747
INCLINATION    = 29.0618
RA_OF_ASC_NODE = 111.3210
ARG_OF_PERICENTER = 29.9676
MEAN_ANOMALY   = 333.6769

EPHEMERIS_TYPE = 0
CLASSIFICATION_TYPE = U
NORAD_CAT_ID   = 85431
ELEMENT_SET_NO = 999
REV_AT_EPOCH   = 214
BSTAR          = .35983E-3
MEAN_MOTION_DOT = .1562E-4
MEAN_MOTION_DDOT = 0

CCSDS_OMM_VERS = 2.0
CREATION_DATE  = 
ORIGINATOR     = 

OBJECT_NAME    = UNKNOWN
OBJECT_ID      = 
CENTER_NAME    = EARTH
REF_FRAME      = TEME
TIME_SYSTEM    = UTC
MEAN_ELEMENT_THEORY = SGP/SGP4

EPOCH          = 2026-03-13T14:50:02.497344
MEAN_MOTION    = 15.68404032
ECCENTRICITY   = .0007289
INCLINATION    = 41.4606
RA_OF_ASC_NODE = 155.5047
ARG_OF_PERICENTER = 313.6966
MEAN_ANOMALY   = 141.3444

EPHEMERIS_TYPE = 0
CLASSIFICATION_TYPE = U
NORAD_CAT_ID   = 85448
ELEMENT_SET_NO = 999
REV_AT_EPOCH   = 0
BSTAR          = 0
MEAN_MOTION_DOT = -.384E-5
MEAN_MOTION_DDOT = 0

CCSDS_OMM_VERS = 2.0
CREATION_DATE  = 
ORIGINATOR     = 

OBJECT_NAME    = UNKNOWN
OBJECT_ID      = 
CENTER_NAME    = EARTH
REF_FRAME      = TEME
TIME_SYSTEM    = UTC
MEAN_ELEMENT_THEORY = SGP/SGP4

EPOCH          = 2026-03-28T21:06:23.413824
MEAN_MOTION    = 13.52443319
ECCENTRICITY   = .0052924
INCLINATION    = 100.4809
RA_OF_ASC_NODE = 63.0557
ARG_OF_PERICENTER = 346.6701
MEAN_ANOMALY   = 42.2940

EPHEMERIS_TYPE = 0
CLASSIFICATION_TYPE = U
NORAD_CAT_ID   = 87014
ELEMENT_SET_NO = 999
REV_AT_EPOCH   = 60526
BSTAR          = .39726E-2
MEAN_MOTION_DOT = .2601E-4
MEAN_MOTION_DDOT = 0

CCSDS_OMM_VERS = 2.0
CREATION_DATE  = 
ORIGINATOR     = 

OBJECT_NAME    = UNKNOWN
OBJECT_ID      = 
CENTER_NAME    = EARTH
REF_FRAME      = TEME
TIME_SYSTEM    = UTC
MEAN_ELEMENT_THEORY = SGP/SGP4

EPOCH          = 2026-03-27T19:28:07.390560
MEAN_MOTION    = 14.04747797
ECCENTRICITY   = .0080255
INCLINATION    = 98.7455
RA_OF_ASC_NODE = 123.3128
ARG_OF_PERICENTER = 315.8016
MEAN_ANOMALY   = 43.6758

EPHEMERIS_TYPE = 0
CLASSIFICATION_TYPE = U
NORAD_CAT_ID   = 87029
ELEMENT_SET_NO = 999
REV_AT_EPOCH   = 60775
BSTAR          = .70759E-3
MEAN_MOTION_DOT = .1124E-4
MEAN_MOTION_DDOT = 0

CCSDS_OMM_VERS = 2.0
CREATION_DATE  = 
ORIGINATOR     = 

OBJECT_NAME    = UNKNOWN
OBJECT_ID      = 
CENTER_NAME    = EARTH
REF_FRAME      = TEME
TIME_SYSTEM    = UTC
MEAN_ELEMENT_THEORY = SGP/SGP4

EPOCH          = 2026-03-28T20:01:10.217856
MEAN_MOTION    = 14.07306101
ECCENTRICITY   = .0044488
INCLINATION    = 98.6991
RA_OF_ASC_NODE = 132.1755
ARG_OF_PERICENTER = 154.8644
MEAN_ANOMALY   = 205.4704

EPHEMERIS_TYPE = 0
CLASSIFICATION_TYPE = U
NORAD_CAT_ID   = 87042
ELEMENT_SET_NO = 999
REV_AT_EPOCH   = 56888
BSTAR          = .59516E-3
MEAN_MOTION_DOT = .966E-5
MEAN_MOTION_DDOT = 0

CCSDS_OMM_VERS = 2.0
CREATION_DATE  = 
ORIGINATOR     = 

OBJECT_NAME    = UNKNOWN
OBJECT_ID      = 
CENTER_NAME    = EARTH
REF_FRAME      = TEME
TIME_SYSTEM    = UTC
MEAN_ELEMENT_THEORY = SGP/SGP4

EPOCH          = 2026-03-30T11:32:13.312032
MEAN_MOTION    = 13.46357685
ECCENTRICITY   = .0708448
INCLINATION    = 65.7322
RA_OF_ASC_NODE = 357.4137
ARG_OF_PERICENTER = 91.8889
MEAN_ANOMALY   = 276.3377

EPHEMERIS_TYPE = 0
CLASSIFICATION_TYPE = U
NORAD_CAT_ID   = 87051
ELEMENT_SET_NO = 999
REV_AT_EPOCH   = 60308
BSTAR          = .12748E-2
MEAN_MOTION_DOT = .3618E-4
MEAN_MOTION_DDOT = 0

CCSDS_OMM_VERS = 2.0
CREATION_DATE  = 
ORIGINATOR     = 

OBJECT_NAME    = UNKNOWN
OBJECT_ID      = 
CENTER_NAME    = EARTH
REF_FRAME      = TEME
TIME_SYSTEM    = UTC
MEAN_ELEMENT_THEORY = SGP/SGP4

EPOCH          = 2026-03-29T23:45:29.466432
MEAN_MOTION    = 14.11554712
ECCENTRICITY   = .0014052
INCLINATION    = 100.0873
RA_OF_ASC_NODE = 346.5863
ARG_OF_PERICENTER = 51.7294
MEAN_ANOMALY   = 308.5135

EPHEMERIS_TYPE = 0
CLASSIFICATION_TYPE = U
NORAD_CAT_ID   = 87054
ELEMENT_SET_NO = 999
REV_AT_EPOCH   = 63145
BSTAR          = .12237E-2
MEAN_MOTION_DOT = .217E-4
MEAN_MOTION_DDOT = 0

CCSDS_OMM_VERS = 2.0
CREATION_DATE  = 
ORIGINATOR     = 

OBJECT_NAME    = UNKNOWN
OBJECT_ID      = 
CENTER_NAME    = EARTH
REF_FRAME      = TEME
TIME_SYSTEM    = UTC
MEAN_ELEMENT_THEORY = SGP/SGP4

EPOCH          = 2026-03-29T22:05:12.299136
MEAN_MOTION    = 13.86780458
ECCENTRICITY   = .0471098
INCLINATION    = 61.2216
RA_OF_ASC_NODE = 312.9934
ARG_OF_PERICENTER = 291.5906
MEAN_ANOMALY   = 63.5558

EPHEMERIS_TYPE = 0
CLASSIFICATION_TYPE = U
NORAD_CAT_ID   = 87071
ELEMENT_SET_NO = 999
REV_AT_EPOCH   = 61734
BSTAR          = .10815E-2
MEAN_MOTION_DOT = .2926E-4
MEAN_MOTION_DDOT = 0

